STARLINK-33560          
1 62282U 24237R   26087.13960582  .00022021  00000+0  80711-3 0  9991
2 62282  43.0010 112.1565 0001100 271.2762  88.7963 15.27589645 73924
STARLINK-33547          
1 62283U 24237S   26087.75380455  .00024327  00000+0  89030-3 0  9999
2 62283  43.0001  97.7802 0001151 252.5786 107.4939 15.27592258 74232
STARLINK-33563          
1 62284U 24237T   26087.34219090  .00021233  00000+0  77863-3 0  9995
2 62284  43.0018 111.0960 0001123 274.0302  86.0421 15.27591798 74043
STARLINK-33550          
1 62285U 24237U   26087.52806918  .00024639  00000+0  90046-3 0  9998
2 62285  43.0023 109.9146 0001934 267.0980  92.9650 15.27632074 74072
STARLINK-33564          
1 62286U 24237V   26087.54220142  .00020416  00000+0  74896-3 0  9994
2 62286  43.0012 110.0224 0001145 271.9410  88.1310 15.27597643 74079
STARLINK-33546          
1 62287U 24237W   26087.53449243  .00023733  00000+0  86870-3 0  9999
2 62287  43.0015 109.9585 0001737 262.0875  97.9779 15.27598247 73980
STARLINK-33565          
1 62288U 24237X   26087.72424390  .00030507  00000+0  11137-2 0  9997
2 62288  43.0005  97.5630 0000514 322.0458  38.0357 15.27576640 74239
STARLINK-33549          
1 62289U 24237Y   26087.34989848  .00030956  00000+0  11293-2 0  9991
2 62289  43.0009 111.1595 0001298 268.7189  91.3514 15.27591392 74041
STARLINK-32648          
1 62301U 24239A   26087.71195485  .00027210  00000+0  92733-3 0  9993
2 62301  53.1588  92.9706 0001673  81.4730 278.6461 15.30203706 72478
STARLINK-32594          
1 62302U 24239B   26087.76566009  .00023511  00000+0  80311-3 0  9992
2 62302  53.1606 103.0950 0001644  87.6163 272.5026 15.30212428 72337
STARLINK-32621          
1 62303U 24239C   26087.28523939  .00025917  00000+0  88389-3 0  9990
2 62303  53.1604  94.5720 0001312  81.9031 278.2119 15.30208187 72410
STARLINK-32597          
1 62304U 24239D   26087.70245046  .00024071  00000+0  82175-3 0  9995
2 62304  53.1580  92.9140 0001186  85.8728 274.2408 15.30217373 72477
STARLINK-32649          
1 62305U 24239E   26087.46379612  .00029430  00000+0  10017-2 0  9995
2 62305  53.1593 106.3438 0001277  87.9155 272.1992 15.30204284 72269
STARLINK-32633          
1 62306U 24239F   26087.75460322  .00022321  00000+0  76331-3 0  9991
2 62306  53.1590 105.3065 0001446  83.6807 276.4358 15.30206708 72308
STARLINK-32646          
1 62307U 24239G   26087.28101848  .00012220  00000+0  42380-3 0  9999
2 62307  53.1603  94.5449 0001137  77.7005 282.4123 15.30218234 72416
STARLINK-32706          
1 62308U 24239H   26087.78415101  .00030086  00000+0  10233-2 0  9996
2 62308  53.1606 105.4909 0001238  83.5981 276.5161 15.30215056 72306
