[{"OBJECT_NAME":"STARLINK-33560","OBJECT_ID":"2024-237R","EPOCH":"2026-03-28T03:21:01.942848","MEAN_MOTION":15.27589645,"ECCENTRICITY":0.00011007,"INCLINATION":43.001,"RA_OF_ASC_NODE":112.1565,"ARG_OF_PERICENTER":271.2762,"MEAN_ANOMALY":88.7963,"EPHEMERIS_TYPE":0,"CLASSIFICATION_TYPE":"U","NORAD_CAT_ID":62282,"ELEMENT_SET_NO":999,"REV_AT_EPOCH":7392,"BSTAR":0.00080711027,"MEAN_MOTION_DOT":0.00022021,"MEAN_MOTION_DDOT":0},{"OBJECT_NAME":"STARLINK-33547","OBJECT_ID":"2024-237S","EPOCH":"2026-03-28T18:05:28.713120","MEAN_MOTION":15.27592258,"ECCENTRICITY":0.0001151,"INCLINATION":43.0001,"RA_OF_ASC_NODE":97.7802,"ARG_OF_PERICENTER":252.5786,"MEAN_ANOMALY":107.4939,"EPHEMERIS_TYPE":0,"CLASSIFICATION_TYPE":"U","NORAD_CAT_ID":62283,"ELEMENT_SET_NO":999,"REV_AT_EPOCH":7423,"BSTAR":0.0008903,"MEAN_MOTION_DOT":0.00024327,"MEAN_MOTION_DDOT":0},{"OBJECT_NAME":"STARLINK-33563","OBJECT_ID":"2024-237T","EPOCH":"2026-03-28T08:12:45.293760","MEAN_MOTION":15.27591798,"ECCENTRICITY":0.00011231,"INCLINATION":43.0018,"RA_OF_ASC_NODE":111.096,"ARG_OF_PERICENTER":274.0302,"MEAN_ANOMALY":86.0421,"EPHEMERIS_TYPE":0,"CLASSIFICATION_TYPE":"U","NORAD_CAT_ID":62284,"ELEMENT_SET_NO":999,"REV_AT_EPOCH":7404,"BSTAR":0.00077862957,"MEAN_MOTION_DOT":0.00021233,"MEAN_MOTION_DDOT":0},{"OBJECT_NAME":"STARLINK-33550","OBJECT_ID":"2024-237U","EPOCH":"2026-03-28T12:40:25.177152","MEAN_MOTION":15.27632074,"ECCENTRICITY":0.0001934,"INCLINATION":43.0023,"RA_OF_ASC_NODE":109.9146,"ARG_OF_PERICENTER":267.098,"MEAN_ANOMALY":92.965,"EPHEMERIS_TYPE":0,"CLASSIFICATION_TYPE":"U","NORAD_CAT_ID":62285,"ELEMENT_SET_NO":999,"REV_AT_EPOCH":7407,"BSTAR":0.00090046,"MEAN_MOTION_DOT":0.00024639,"MEAN_MOTION_DDOT":0},{"OBJECT_NAME":"STARLINK-33564","OBJECT_ID":"2024-237V","EPOCH":"2026-03-28T13:00:46.202688","MEAN_MOTION":15.27597643,"ECCENTRICITY":0.0001145,"INCLINATION":43.0012,"RA_OF_ASC_NODE":110.0224,"ARG_OF_PERICENTER":271.941,"MEAN_ANOMALY":88.131,"EPHEMERIS_TYPE":0,"CLASSIFICATION_TYPE":"U","NORAD_CAT_ID":62286,"ELEMENT_SET_NO":999,"REV_AT_EPOCH":7407,"BSTAR":0.00074896,"MEAN_MOTION_DOT":0.00020416,"MEAN_MOTION_DDOT":0},{"OBJECT_NAME":"STARLINK-33546","OBJECT_ID":"2024-237W","EPOCH":"2026-03-28T12:49:40.145952","MEAN_MOTION":15.27598247,"ECCENTRICITY":0.0001737,"INCLINATION":43.0015,"RA_OF_ASC_NODE":109.9585,"ARG_OF_PERICENTER":262.0875,"MEAN_ANOMALY":97.9779,"EPHEMERIS_TYPE":0,"CLASSIFICATION_TYPE":"U","NORAD_CAT_ID":62287,"ELEMENT_SET_NO":999,"REV_AT_EPOCH":7398,"BSTAR":0.0008687,"MEAN_MOTION_DOT":0.00023733,"MEAN_MOTION_DDOT":0},{"OBJECT_NAME":"STARLINK-33565","OBJECT_ID":"2024-237X","EPOCH":"2026-03-28T17:22:54.672960","MEAN_MOTION":15.2757664,"ECCENTRICITY":5.14e-5,"INCLINATION":43.0005,"RA_OF_ASC_NODE":97.563,"ARG_OF_PERICENTER":322.0458,"MEAN_ANOMALY":38.0357,"EPHEMERIS_TYPE":0,"CLASSIFICATION_TYPE":"U","NORAD_CAT_ID":62288,"ELEMENT_SET_NO":999,"REV_AT_EPOCH":7423,"BSTAR":0.0011137,"MEAN_MOTION_DOT":0.00030507,"MEAN_MOTION_DDOT":0},{"OBJECT_NAME":"STARLINK-33549","OBJECT_ID":"2024-237Y","EPOCH":"2026-03-28T08:23:51.228672","MEAN_MOTION":15.27591392,"ECCENTRICITY":0.00012988,"INCLINATION":43.0009,"RA_OF_ASC_NODE":111.1595,"ARG_OF_PERICENTER":268.7189,"MEAN_ANOMALY":91.3514,"EPHEMERIS_TYPE":0,"CLASSIFICATION_TYPE":"U","NORAD_CAT_ID":62289,"ELEMENT_SET_NO":999,"REV_AT_EPOCH":7404,"BSTAR":0.001129321,"MEAN_MOTION_DOT":0.00030956,"MEAN_MOTION_DDOT":0},{"OBJECT_NAME":"STARLINK-32648","OBJECT_ID":"2024-239A","EPOCH":"2026-03-28T17:05:12.899040","MEAN_MOTION":15.30203706,"ECCENTRICITY":0.0001673,"INCLINATION":53.1588,"RA_OF_ASC_NODE":92.9706,"ARG_OF_PERICENTER":81.473,"MEAN_ANOMALY":278.6461,"EPHEMERIS_TYPE":0,"CLASSIFICATION_TYPE":"U","NORAD_CAT_ID":62301,"ELEMENT_SET_NO":999,"REV_AT_EPOCH":7247,"BSTAR":0.00092733,"MEAN_MOTION_DOT":0.0002721,"MEAN_MOTION_DDOT":0},{"OBJECT_NAME":"STARLINK-32594","OBJECT_ID":"2024-239B","EPOCH":"2026-03-28T18:22:33.031776","MEAN_MOTION":15.30212428,"ECCENTRICITY":0.0001644,"INCLINATION":53.1606,"RA_OF_ASC_NODE":103.095,"ARG_OF_PERICENTER":87.6163,"MEAN_ANOMALY":272.5026,"EPHEMERIS_TYPE":0,"CLASSIFICATION_TYPE":"U","NORAD_CAT_ID":62302,"ELEMENT_SET_NO":999,"REV_AT_EPOCH":7233,"BSTAR":0.00080311,"MEAN_MOTION_DOT":0.00023511,"MEAN_MOTION_DDOT":0},{"OBJECT_NAME":"STARLINK-32621","OBJECT_ID":"2024-239C","EPOCH":"2026-03-28T06:50:44.683296","MEAN_MOTION":15.30208187,"ECCENTRICITY":0.0001312,"INCLINATION":53.1604,"RA_OF_ASC_NODE":94.572,"ARG_OF_PERICENTER":81.9031,"MEAN_ANOMALY":278.2119,"EPHEMERIS_TYPE":0,"CLASSIFICATION_TYPE":"U","NORAD_CAT_ID":62303,"ELEMENT_SET_NO":999,"REV_AT_EPOCH":7241,"BSTAR":0.00088389,"MEAN_MOTION_DOT":0.00025917,"MEAN_MOTION_DDOT":0},{"OBJECT_NAME":"STARLINK-32597","OBJECT_ID":"2024-239D","EPOCH":"2026-03-28T16:51:31.719744","MEAN_MOTION":15.30217373,"ECCENTRICITY":0.0001186,"INCLINATION":53.158,"RA_OF_ASC_NODE":92.914,"ARG_OF_PERICENTER":85.8728,"MEAN_ANOMALY":274.2408,"EPHEMERIS_TYPE":0,"CLASSIFICATION_TYPE":"U","NORAD_CAT_ID":62304,"ELEMENT_SET_NO":999,"REV_AT_EPOCH":7247,"BSTAR":0.00082175,"MEAN_MOTION_DOT":0.00024071,"MEAN_MOTION_DDOT":0},{"OBJECT_NAME":"STARLINK-32649","OBJECT_ID":"2024-239E","EPOCH":"2026-03-28T11:07:51.984768","MEAN_MOTION":15.30204284,"ECCENTRICITY":0.00012771,"INCLINATION":53.1593,"RA_OF_ASC_NODE":106.3438,"ARG_OF_PERICENTER":87.9155,"MEAN_ANOMALY":272.1992,"EPHEMERIS_TYPE":0,"CLASSIFICATION_TYPE":"U","NORAD_CAT_ID":62305,"ELEMENT_SET_NO":999,"REV_AT_EPOCH":7226,"BSTAR":0.0010017155,"MEAN_MOTION_DOT":0.0002943,"MEAN_MOTION_DDOT":0},{"OBJECT_NAME":"STARLINK-32633","OBJECT_ID":"2024-239F","EPOCH":"2026-03-28T18:06:37.718208","MEAN_MOTION":15.30206708,"ECCENTRICITY":0.0001446,"INCLINATION":53.159,"RA_OF_ASC_NODE":105.3065,"ARG_OF_PERICENTER":83.6807,"MEAN_ANOMALY":276.4358,"EPHEMERIS_TYPE":0,"CLASSIFICATION_TYPE":"U","NORAD_CAT_ID":62306,"ELEMENT_SET_NO":999,"REV_AT_EPOCH":7230,"BSTAR":0.00076331,"MEAN_MOTION_DOT":0.00022321,"MEAN_MOTION_DDOT":0},{"OBJECT_NAME":"STARLINK-32646","OBJECT_ID":"2024-239G","EPOCH":"2026-03-28T06:44:39.996672","MEAN_MOTION":15.30218234,"ECCENTRICITY":0.0001137,"INCLINATION":53.1603,"RA_OF_ASC_NODE":94.5449,"ARG_OF_PERICENTER":77.7005,"MEAN_ANOMALY":282.4123,"EPHEMERIS_TYPE":0,"CLASSIFICATION_TYPE":"U","NORAD_CAT_ID":62307,"ELEMENT_SET_NO":999,"REV_AT_EPOCH":7241,"BSTAR":0.0004238,"MEAN_MOTION_DOT":0.0001222,"MEAN_MOTION_DDOT":0},{"OBJECT_NAME":"STARLINK-32706","OBJECT_ID":"2024-239H","EPOCH":"2026-03-28T18:49:10.647264","MEAN_MOTION":15.30215056,"ECCENTRICITY":0.0001238,"INCLINATION":53.1606,"RA_OF_ASC_NODE":105.4909,"ARG_OF_PERICENTER":83.5981,"MEAN_ANOMALY":276.5161,"EPHEMERIS_TYPE":0,"CLASSIFICATION_TYPE":"U","NORAD_CAT_ID":62308,"ELEMENT_SET_NO":999,"REV_AT_EPOCH":7230,"BSTAR":0.0010233,"MEAN_MOTION_DOT":0.00030086,"MEAN_MOTION_DDOT":0}]
